      2.10          N: GNSS NAV DATA                        RINEX VERSION / TYPE
fic2rin                                 10/17/2018 00:22:10 PGM / RUN BY / DATE
                                                            END OF HEADER
12 18 10 16 16  0  0.0 2.993289381266e-04-2.842170943040e-12 0.000000000000e+00
    6.400000000000e+01 4.546875000000e+01 3.780514616466e-09 2.427091694500e+00
    2.328306436539e-06 7.032482069917e-03 7.087364792824e-06 5.153759700775e+03
    2.304000000000e+05 3.911554813385e-08-1.005039389136e+00-1.192092895508e-07
    9.851117370351e-01 2.537187500000e+02 1.022534793639e+00-7.697463487394e-09
    6.535986535788e-11 1.000000000000e+00 2.023000000000e+03 0.000000000000e+00
    2.400000000000e+00 0.000000000000e+00-1.257285475731e-08 6.400000000000e+01
    2.232060000000e+05 4.000000000000e+00
 9 18 10 16 16  0  0.0 4.999968223274e-04-2.728484105319e-12 0.000000000000e+00
    7.900000000000e+01 1.753125000000e+01 4.873417283106e-09 5.408895290771e-02
    8.773058652878e-07 1.249320222996e-03 7.487833499908e-06 5.153803121567e+03
    2.304000000000e+05-2.235174179077e-08 3.105164577311e+00 9.313225746155e-09
    9.529917760241e-01 2.301875000000e+02 1.686523407772e+00-8.124266979758e-09
   -9.000374901741e-11 1.000000000000e+00 2.023000000000e+03 0.000000000000e+00
    3.400000000000e+00 0.000000000000e+00 1.396983861923e-09 7.900000000000e+01
    2.232060000000e+05 4.000000000000e+00
 6 18 10 16 16  0  0.0 3.487118519843e-04-5.684341886081e-12 0.000000000000e+00
    5.200000000000e+01-7.650000000000e+01 4.356252883990e-09-2.285611598223e+00
   -3.848224878311e-06 9.957462316379e-04 6.768852472305e-06 5.153722797394e+03
    2.304000000000e+05 1.676380634308e-08 1.020818161677e+00 2.793967723846e-08
    9.724109997242e-01 2.557500000000e+02-1.184985150565e+00-7.957474317889e-09
    7.500312418118e-11 1.000000000000e+00 2.023000000000e+03 0.000000000000e+00
    2.400000000000e+00 0.000000000000e+00 4.656612873077e-09 5.200000000000e+01
    2.232060000000e+05 4.000000000000e+00
13 18 10 16 16  0  0.0-8.692452684045e-05 9.094947017729e-13 0.000000000000e+00
    1.700000000000e+01 1.593750000000e+01 4.506616290086e-09-1.598110220094e+00
    7.282942533493e-07 3.501288127154e-03 7.377937436104e-06 5.153663379669e+03
    2.304000000000e+05 3.539025783539e-08-3.044226863697e+00 9.126961231232e-08
    9.686230527753e-01 2.416562500000e+02 1.438233430115e+00-7.926758752748e-09
   -1.657211886670e-10 1.000000000000e+00 2.023000000000e+03 0.000000000000e+00
    2.400000000000e+00 0.000000000000e+00-1.117587089539e-08 1.700000000000e+01
    2.232060000000e+05 4.000000000000e+00
30 18 10 16 16  0  0.0 9.312294423580e-06-5.456968210638e-12 0.000000000000e+00
    1.700000000000e+01 3.106250000000e+01 4.893418116221e-09 3.004157477526e+00
    1.506879925728e-06 3.596579190344e-03 8.042901754379e-06 5.153675451279e+03
    2.304000000000e+05-3.166496753693e-08-2.069572798014e+00-4.097819328308e-08
    9.427898724910e-01 2.145312500000e+02-2.970050572402e+00-8.146410759278e-09
   -3.314423773340e-10 1.000000000000e+00 2.023000000000e+03 0.000000000000e+00
    2.400000000000e+00 0.000000000000e+00 3.725290298462e-09 1.700000000000e+01
    2.232060000000e+05 4.000000000000e+00
29 18 10 16 16  0  0.0 3.557601012290e-04-7.730704965070e-12 0.000000000000e+00
    1.600000000000e+01-1.418750000000e+01 3.992666310578e-09 1.176097731591e-01
   -9.834766387939e-07 7.337564602494e-04 4.891306161880e-06 5.153618455887e+03
    2.304000000000e+05 2.793967723846e-08 3.913466636737e-02 1.862645149231e-08
    9.850297434026e-01 2.962812500000e+02 1.661113126384e+00-7.958545791091e-09
    1.364342544629e-10 1.000000000000e+00 2.023000000000e+03 0.000000000000e+00
    2.400000000000e+00 0.000000000000e+00-1.024454832077e-08 1.600000000000e+01
    2.232060000000e+05 4.000000000000e+00
24 18 10 16 16  0  0.0-5.681719630957e-05-4.547473508865e-13 0.000000000000e+00
    3.900000000000e+01 1.934375000000e+01 4.880560437789e-09-2.231921780569e+00
    1.048669219017e-06 7.429426768795e-03 7.702037692070e-06 5.153622396469e+03
    2.304000000000e+05-5.587935447693e-08-2.163255952042e+00-5.960464477539e-08
    9.404029885192e-01 2.207812500000e+02 5.369570663028e-01-8.106051935314e-09
   -2.000083311498e-10 1.000000000000e+00 2.023000000000e+03 0.000000000000e+00
    3.400000000000e+00 0.000000000000e+00 2.793967723846e-09 3.900000000000e+01
    2.232060000000e+05 4.000000000000e+00
21 18 10 16 16  0  0.0-3.202916122973e-04 6.252776074689e-12 0.000000000000e+00
    2.000000000000e+01-6.431250000000e+01 4.791628161975e-09 1.917323172823e+00
   -3.641471266747e-06 2.437770098913e-02 6.144866347313e-06 5.153612699509e+03
    2.304000000000e+05 4.023313522339e-07 9.709531579706e-01-3.352761268616e-07
    9.454695756086e-01 2.521875000000e+02-1.520377484248e+00-7.948902532268e-09
    8.536069847286e-11 1.000000000000e+00 2.023000000000e+03 0.000000000000e+00
    2.400000000000e+00 0.000000000000e+00-9.778887033463e-09 2.000000000000e+01
    2.232060000000e+05 4.000000000000e+00
26 18 10 16 16  0  0.0 1.114793121815e-05 1.125499693444e-11 0.000000000000e+00
    2.400000000000e+01 4.962500000000e+01 4.515545233441e-09 1.503540578672e+00
    2.633780241013e-06 3.044865443371e-03 6.243586540222e-06 5.153738443375e+03
    2.304000000000e+05-2.793967723846e-08-1.091104723497e+00 4.097819328308e-08
    9.540648513049e-01 2.553750000000e+02 4.417158694104e-02-8.134624554050e-09
   -5.000208278745e-11 1.000000000000e+00 2.023000000000e+03 0.000000000000e+00
    2.400000000000e+00 0.000000000000e+00 7.450580596924e-09 2.400000000000e+01
    2.232060000000e+05 4.000000000000e+00
22 18 10 16 16  0  0.0-5.484432913363e-04-1.034550223267e-11 0.000000000000e+00
    8.000000000000e+01-2.225000000000e+01 5.432011979388e-09-1.180706488227e+00
   -1.126900315285e-06 7.020303746685e-03 8.912757039070e-06 5.153686614990e+03
    2.304000000000e+05-1.918524503708e-07 2.007390249370e+00 1.061707735062e-07
    9.257125626611e-01 1.889062500000e+02-1.473670347211e+00-8.481781871689e-09
    1.900079145923e-10 1.000000000000e+00 2.023000000000e+03 0.000000000000e+00
    2.400000000000e+00 0.000000000000e+00-1.816079020500e-08 8.000000000000e+01
    2.232060000000e+05 4.000000000000e+00
25 18 10 16 16  0  0.0-6.626429967582e-04-5.684341886081e-12 0.000000000000e+00
    8.300000000000e+01 4.768750000000e+01 4.055883229531e-09 2.049899869209e+00
    2.454966306686e-06 7.514022057876e-03 6.727874279022e-06 5.153582075119e+03
    2.304000000000e+05-1.303851604462e-07-1.066587031334e+00-1.266598701477e-07
    9.726324489484e-01 2.550312500000e+02 8.560339793541e-01-7.933901907432e-09
    3.250135381184e-11 1.000000000000e+00 2.023000000000e+03 0.000000000000e+00
    2.400000000000e+00 0.000000000000e+00 5.587935447693e-09 8.300000000000e+01
    2.232060000000e+05 4.000000000000e+00
14 18 10 16 16  0  0.0-9.666569530964e-05 3.410605131648e-13 0.000000000000e+00
    6.700000000000e+01 1.293750000000e+01 4.797699843456e-09-6.833786453036e-01
    7.059425115585e-07 1.001371105667e-02 7.361173629761e-06 5.153633766174e+03
    2.304000000000e+05-1.043081283569e-07-3.087079018490e+00 1.247972249985e-07
    9.611789882772e-01 2.396562500000e+02-1.943694015000e+00-8.266415757968e-09
   -1.871506527187e-10 1.000000000000e+00 2.023000000000e+03 0.000000000000e+00
    2.400000000000e+00 0.000000000000e+00-9.778887033463e-09 6.700000000000e+01
    2.232060000000e+05 4.000000000000e+00
23 18 10 16 16  0  0.0-2.085552550852e-04 9.094947017729e-13 0.000000000000e+00
    7.900000000000e+01 1.690625000000e+01 5.013065957176e-09-1.809050225609e+00
    7.599592208862e-07 1.262299716473e-02 7.141381502151e-06 5.153710556030e+03
    2.304000000000e+05 1.620501279831e-07 3.102198266598e+00-1.154839992523e-07
    9.438052371165e-01 2.296250000000e+02-2.323979430729e+00-8.033191757538e-09
    9.643258823294e-12 1.000000000000e+00 2.023000000000e+03 0.000000000000e+00
    2.400000000000e+00 0.000000000000e+00-2.002343535423e-08 7.900000000000e+01
    2.232060000000e+05 4.000000000000e+00
15 18 10 16 16  0  0.0-3.428803756833e-04 1.136868377216e-12 0.000000000000e+00
    6.600000000000e+01 1.403125000000e+01 5.413082619476e-09-1.329905093897e+00
    7.543712854385e-07 1.087840565015e-02 6.837770342827e-06 5.153573759079e+03
    2.304000000000e+05 2.365559339523e-07 3.030886781446e+00-1.676380634308e-08
    9.285016364601e-01 2.290312500000e+02 7.173669019195e-01-8.362134030733e-09
   -1.714357124141e-11 1.000000000000e+00 2.023000000000e+03 0.000000000000e+00
    2.400000000000e+00 0.000000000000e+00-1.117587089539e-08 6.600000000000e+01
    2.232060000000e+05 4.000000000000e+00
17 18 10 16 16  0  0.0-4.339544102550e-05 4.661160346586e-12 0.000000000000e+00
    5.100000000000e+01-4.937500000000e+00 4.206960951096e-09-4.186911246459e-01
   -2.682209014893e-07 1.270358124748e-02 4.924833774567e-06 5.153627426147e+03
    2.304000000000e+05-1.564621925354e-07 2.833712257204e-02 1.322478055954e-07
    9.836794232021e-01 3.019687500000e+02-1.770643037681e+00-8.264629969297e-09
    1.810789712374e-10 1.000000000000e+00 2.023000000000e+03 0.000000000000e+00
    2.400000000000e+00 0.000000000000e+00-1.117587089539e-08 5.100000000000e+01
    2.232060000000e+05 4.000000000000e+00
19 18 10 16 16  0  0.0-3.929669037461e-04 3.637978807092e-12 0.000000000000e+00
    5.300000000000e+01-1.221875000000e+01 4.115171413407e-09 2.334034508489e+00
   -7.636845111847e-07 9.560634265654e-03 4.317611455917e-06 5.153606033325e+03
    2.304000000000e+05 4.097819328308e-08 7.500462623232e-02-9.313225746155e-08
    9.813114445206e-01 3.064687500000e+02 1.301000167468e+00-7.890328663860e-09
    1.060758470562e-10 1.000000000000e+00 2.023000000000e+03 0.000000000000e+00
    2.400000000000e+00 0.000000000000e+00-1.536682248116e-08 5.300000000000e+01
    2.232060000000e+05 4.000000000000e+00
